ONEWEB-0267             
1 48985U 21060U   24243.59098812  .00000009  00000+0 -98508-5 0  9994
2 48985  87.9164 359.3171 0001549 107.0628 253.0673 13.16596332153322
ONEWEB-0268             
1 48986U 21060V   24243.86330056 -.00000007  00000+0 -52176-4 0  9993
2 48986  87.9170 359.2696 0001697  96.6145 263.5179 13.16595513153622
ONEWEB-0269             
1 48987U 21060W   24243.61632628  .00000140  00000+0  33227-3 0  9998
2 48987  87.9168 359.3463 0001812  97.2406 262.8931 13.16594293153362
ONEWEB-0270             
1 48988U 21060X   24243.86172678  .00000023  00000+0  25837-4 0  9999
2 48988  87.9170 359.2773 0001755 117.4724 242.6585 13.16595297153437
ONEWEB-0271             
1 48989U 21060Y   24243.84906228  .00000042  00000+0  75442-4 0  9992
2 48989  87.9168 359.2574 0001580 110.3719 249.7582 13.16594971153439
ONEWEB-0272             
1 48990U 21060Z   24243.87123187 -.00000050  00000+0 -16417-3 0  9999
2 48990  87.9173 359.2827 0001597 105.1352 254.9955 13.16592560153389
ONEWEB-0273             
1 48991U 21060AA  24243.58940832 -.00000016  00000+0 -74140-4 0  9992
2 48991  87.9168 359.3245 0001881 105.6140 254.5199 13.16595188153324
ONEWEB-0274             
1 48992U 21060AB  24243.61473494  .00000082  00000+0  18185-3 0  9999
2 48992  87.9171 359.3381 0001376  90.8377 269.2912 13.16596312153366
